{"type": "FeatureCollection", "features": [ {"type": "Feature", "properties": {"norad_id": 66052, "name": "HRC MONOBLOCK CAMERA", "group": "stations", "lat": -37.377252396045215, "lon": 33.21930768040416, "alt_km": 405.102035795293, "timestamp": "2025-12-26T23:26:40.955689+00:00", "meta": {"OBJECT_NAME": "HRC MONOBLOCK CAMERA", "OBJECT_ID": "1998-067XR", "EPOCH": "2025-12-26T14:24:31.276800", "MEAN_MOTION": 15.55102813, "ECCENTRICITY": 0.0001915, "INCLINATION": 51.6303, "RA_OF_ASC_NODE": 72.3477, "ARG_OF_PERICENTER": 253.6034, "MEAN_ANOMALY": 106.4747, "EPHEMERIS_TYPE": 0, "CLASSIFICATION_TYPE": "U", "NORAD_CAT_ID": 66052, "ELEMENT_SET_NO": 999, "REV_AT_EPOCH": 1099, "BSTAR": 0.00053584, "MEAN_MOTION_DOT": 0.00036444, "MEAN_MOTION_DDOT": 0}, "tle": {"line1": "1 66052U 98067XR  25360.60036200  .00036444  00000+0  53584-3 0  9990", "line2": "2 66052  51.6303  72.3477 0001915 253.6034 106.4747 15.55102813 10997"}}, "geometry": {"type": "Point", "coordinates": [33.21930768040416, -37.377252396045215]}}, {"type": "Feature", "properties": {"norad_id": 66174, "name": "HTV-X1", "group": "stations", "lat": -37.85892811602036, "lon": 33.95417289016605, "alt_km": 419.062707539425, "timestamp": "2025-12-26T23:26:40.955699+00:00", "meta": {"OBJECT_NAME": "HTV-X1", "OBJECT_ID": "2025-241A", "EPOCH": "2025-12-26T12:50:01.193856", "MEAN_MOTION": 15.49844261, "ECCENTRICITY": 0.00032307, "INCLINATION": 51.632, "RA_OF_ASC_NODE": 74.1581, "ARG_OF_PERICENTER": 305.5588, "MEAN_ANOMALY": 54.5099, "EPHEMERIS_TYPE": 0, "CLASSIFICATION_TYPE": "U", "NORAD_CAT_ID": 66174, "ELEMENT_SET_NO": 999, "REV_AT_EPOCH": 51, "BSTAR": 0.00025381537, "MEAN_MOTION_DOT": 0.00013978, "MEAN_MOTION_DDOT": 0}, "tle": {"line1": "1 66174U 25241A   25360.53473604  .00013978  00000+0  25382-3 0  9996", "line2": "2 66174  51.6320  74.1581 0003230 305.5588  54.5099 15.49844261   513"}}, "geometry": {"type": "Point", "coordinates": [33.95417289016605, -37.85892811602036]}}, {"type": "Feature", "properties": {"norad_id": 66515, "name": "SZ-21 MODULE", "group": "stations", "lat": -15.761455947579671, "lon": -89.48635641153685, "alt_km": 376.61765331498646, "timestamp": "2025-12-26T23:26:40.955708+00:00", "meta": {"OBJECT_NAME": "SZ-21 MODULE", "OBJECT_ID": "2025-246C", "EPOCH": "2025-12-25T04:36:53.601984", "MEAN_MOTION": 15.63137537, "ECCENTRICITY": 0.0004589, "INCLINATION": 41.4767, "RA_OF_ASC_NODE": 300.0489, "ARG_OF_PERICENTER": 327.9877, "MEAN_ANOMALY": 32.0683, "EPHEMERIS_TYPE": 0, "CLASSIFICATION_TYPE": "U", "NORAD_CAT_ID": 66515, "ELEMENT_SET_NO": 999, "REV_AT_EPOCH": 639, "BSTAR": 0.00031272, "MEAN_MOTION_DOT": 0.00029146, "MEAN_MOTION_DDOT": 0}, "tle": {"line1": "1 66515U 25246C   25359.19228706  .00029146  00000+0  31272-3 0  9990", "line2": "2 66515  41.4767 300.0489 0004589 327.9877  32.0683 15.63137537  6398"}}, "geometry": {"type": "Point", "coordinates": [-89.48635641153685, -15.761455947579671]}}, {"type": "Feature", "properties": {"norad_id": 66645, "name": "SHENZHOU-22", "group": "stations", "lat": -39.45977337010426, "lon": 179.00515003328172, "alt_km": 392.3234108769284, "timestamp": "2025-12-26T23:26:40.955718+00:00", "meta": {"OBJECT_NAME": "SHENZHOU-22", "OBJECT_ID": "2025-272A", "EPOCH": "2025-12-26T05:27:30.670848", "MEAN_MOTION": 15.59708409, "ECCENTRICITY": 0.00085179, "INCLINATION": 41.468, "RA_OF_ASC_NODE": 294.7909, "ARG_OF_PERICENTER": 149.5046, "MEAN_ANOMALY": 210.6289, "EPHEMERIS_TYPE": 0, "CLASSIFICATION_TYPE": "U", "NORAD_CAT_ID": 66645, "ELEMENT_SET_NO": 999, "REV_AT_EPOCH": 26598, "BSTAR": 0.00023601706, "MEAN_MOTION_DOT": 0.00019151, "MEAN_MOTION_DDOT": 0}, "tle": {"line1": "1 66645U 25272A   25360.22743832  .00019151  00000+0  23602-3 0  9994", "line2": "2 66645  41.4680 294.7909 0008517 149.5046 210.6289 15.59708409265988"}}, "geometry": {"type": "Point", "coordinates": [179.00515003328172, -39.45977337010426]}}, {"type": "Feature", "properties": {"norad_id": 66664, "name": "SOYUZ-MS 28", "group": "stations", "lat": -37.85889242041976, "lon": 33.95423042087656, "alt_km": 419.06202669242793, "timestamp": "2025-12-26T23:26:40.955726+00:00", "meta": {"OBJECT_NAME": "SOYUZ-MS 28", "OBJECT_ID": "2025-275A", "EPOCH": "2025-12-26T12:50:01.192992", "MEAN_MOTION": 15.49844261, "ECCENTRICITY": 0.0003231, "INCLINATION": 51.632, "RA_OF_ASC_NODE": 74.1581, "ARG_OF_PERICENTER": 305.5588, "MEAN_ANOMALY": 54.5099, "EPHEMERIS_TYPE": 0, "CLASSIFICATION_TYPE": "U", "NORAD_CAT_ID": 66664, "ELEMENT_SET_NO": 999, "REV_AT_EPOCH": 458, "BSTAR": 0.00025382, "MEAN_MOTION_DOT": 0.00013978, "MEAN_MOTION_DDOT": 0}, "tle": {"line1": "1 66664U 25275A   25360.53473603  .00013978  00000+0  25382-3 0  9996", "line2": "2 66664  51.6320  74.1581 0003231 305.5588  54.5099 15.49844261  4589"}}, "geometry": {"type": "Point", "coordinates": [33.95423042087656, -37.85889242041976]}}, {"type": "Feature", "properties": {"norad_id": 66906, "name": "1998-067XS", "group": "stations", "lat": 32.13771811571243, "lon": 101.62106465242289, "alt_km": 409.7353458866464, "timestamp": "2025-12-26T23:26:40.955747+00:00", "meta": {"OBJECT_NAME": "1998-067XS", "OBJECT_ID": "1998-067XS", "EPOCH": "2025-12-26T15:31:52.020768", "MEAN_MOTION": 15.5132596, "ECCENTRICITY": 0.0002673, "INCLINATION": 51.6319, "RA_OF_ASC_NODE": 73.4106, "ARG_OF_PERICENTER": 274.6448, "MEAN_ANOMALY": 85.4236, "EPHEMERIS_TYPE": 0, "CLASSIFICATION_TYPE": "U", "NORAD_CAT_ID": 66906, "ELEMENT_SET_NO": 999, "REV_AT_EPOCH": 377, "BSTAR": 0.00048785, "MEAN_MOTION_DOT": 0.0002883, "MEAN_MOTION_DDOT": 0}, "tle": {"line1": "1 66906U 98067XS  25360.64712987  .00028830  00000+0  48785-3 0  9992", "line2": "2 66906  51.6319  73.4106 0002673 274.6448  85.4236 15.51325960  3770"}}, "geometry": {"type": "Point", "coordinates": [101.62106465242289, 32.13771811571243]}}, {"type": "Feature", "properties": {"norad_id": 66907, "name": "1998-067XT", "group": "stations", "lat": 37.819716807843285, "lon": -146.35671372132137, "alt_km": 404.84227669570646, "timestamp": "2025-12-26T23:26:40.955758+00:00", "meta": {"OBJECT_NAME": "1998-067XT", "OBJECT_ID": "1998-067XT", "EPOCH": "2025-12-26T12:05:04.890048", "MEAN_MOTION": 15.53165234, "ECCENTRICITY": 0.0003816, "INCLINATION": 51.6314, "RA_OF_ASC_NODE": 73.9516, "ARG_OF_PERICENTER": 309.8325, "MEAN_ANOMALY": 50.2329, "EPHEMERIS_TYPE": 0, "CLASSIFICATION_TYPE": "U", "NORAD_CAT_ID": 66907, "ELEMENT_SET_NO": 999, "REV_AT_EPOCH": 375, "BSTAR": 0.00096732, "MEAN_MOTION_DOT": 0.00061851, "MEAN_MOTION_DDOT": 0}, "tle": {"line1": "1 66907U 98067XT  25360.50352882  .00061851  00000+0  96732-3 0  9997", "line2": "2 66907  51.6314  73.9516 0003816 309.8325  50.2329 15.53165234  3750"}}, "geometry": {"type": "Point", "coordinates": [-146.35671372132137, 37.819716807843285]}}, {"type": "Feature", "properties": {"norad_id": 66908, "name": "1998-067XU", "group": "stations", "lat": 33.63563164794306, "lon": -140.22948490883547, "alt_km": 405.3664500417044, "timestamp": "2025-12-26T23:26:40.955768+00:00", "meta": {"OBJECT_NAME": "1998-067XU", "OBJECT_ID": "1998-067XU", "EPOCH": "2025-12-26T18:14:01.548960", "MEAN_MOTION": 15.53257933, "ECCENTRICITY": 0.000387, "INCLINATION": 51.6313, "RA_OF_ASC_NODE": 72.6614, "ARG_OF_PERICENTER": 309.5614, "MEAN_ANOMALY": 50.5034, "EPHEMERIS_TYPE": 0, "CLASSIFICATION_TYPE": "U", "NORAD_CAT_ID": 66908, "ELEMENT_SET_NO": 999, "REV_AT_EPOCH": 379, "BSTAR": 0.00095802, "MEAN_MOTION_DOT": 0.00061456, "MEAN_MOTION_DDOT": 0}, "tle": {"line1": "1 66908U 98067XU  25360.75974015  .00061456  00000+0  95802-3 0  9991", "line2": "2 66908  51.6313  72.6614 0003870 309.5614  50.5034 15.53257933  3791"}}, "geometry": {"type": "Point", "coordinates": [-140.22948490883547, 33.63563164794306]}}, {"type": "Feature", "properties": {"norad_id": 66909, "name": "SILVERSAT", "group": "stations", "lat": 26.103734402031908, "lon": -131.28455284229574, "alt_km": 405.6231582341725, "timestamp": "2025-12-26T23:26:40.955777+00:00", "meta": {"OBJECT_NAME": "SILVERSAT", "OBJECT_ID": "1998-067XV", "EPOCH": "2025-12-26T12:00:46.911744", "MEAN_MOTION": 15.53512588, "ECCENTRICITY": 0.0003773, "INCLINATION": 51.6312, "RA_OF_ASC_NODE": 73.9315, "ARG_OF_PERICENTER": 313.4073, "MEAN_ANOMALY": 46.6603, "EPHEMERIS_TYPE": 0, "CLASSIFICATION_TYPE": "U", "NORAD_CAT_ID": 66909, "ELEMENT_SET_NO": 999, "REV_AT_EPOCH": 375, "BSTAR": 0.0010737, "MEAN_MOTION_DOT": 0.00069652, "MEAN_MOTION_DDOT": 0}, "tle": {"line1": "1 66909U 98067XV  25360.50054296  .00069652  00000+0  10737-2 0  9994", "line2": "2 66909  51.6312  73.9315 0003773 313.4073  46.6603 15.53512588  3752"}}, "geometry": {"type": "Point", "coordinates": [-131.28455284229574, 26.103734402031908]}}, {"type": "Feature", "properties": {"norad_id": 66910, "name": "1998-067XW", "group": "stations", "lat": 19.73328854281603, "lon": -124.97338785734881, "alt_km": 406.07820858134346, "timestamp": "2025-12-26T23:26:40.955787+00:00", "meta": {"OBJECT_NAME": "1998-067XW", "OBJECT_ID": "1998-067XW", "EPOCH": "2025-12-26T15:03:47.086848", "MEAN_MOTION": 15.53433211, "ECCENTRICITY": 0.0003702, "INCLINATION": 51.6299, "RA_OF_ASC_NODE": 73.2784, "ARG_OF_PERICENTER": 284.4746, "MEAN_ANOMALY": 75.5833, "EPHEMERIS_TYPE": 0, "CLASSIFICATION_TYPE": "U", "NORAD_CAT_ID": 66910, "ELEMENT_SET_NO": 999, "REV_AT_EPOCH": 377, "BSTAR": 0.0010495, "MEAN_MOTION_DOT": 0.00067854, "MEAN_MOTION_DDOT": 0}, "tle": {"line1": "1 66910U 98067XW  25360.62762832  .00067854  00000+0  10495-2 0  9994", "line2": "2 66910  51.6299  73.2784 0003702 284.4746  75.5833 15.53433211  3770"}}, "geometry": {"type": "Point", "coordinates": [-124.97338785734881, 19.73328854281603]}}]}